OUFTI-1                 
1 41458U 16025C   22158.89230751  .00005222  00000+0  22578-3 0  9996
2 41458  98.1861 324.7600 0141518 297.7072  60.9860 15.14323936336135
E-ST@R-II               
1 41459U 16025D   22159.03361054  .00004342  00000+0  19266-3 0  9997
2 41459  98.1844 323.4904 0144468 301.3948  57.3214 15.13275234336073
AAUSAT 4                
1 41460U 16025E   22158.98908183  .00007711  00000+0  30204-3 0  9990
2 41460  98.1794 329.5590 0125855 277.8049  80.8910 15.19011199336501
AIST-2D (RS-48)         
1 41465U 16026B   22158.51688804  .00007309  00000+0  17748-3 0  9991
2 41465  97.0570  35.1948 0010283 157.5522 299.5399 15.41242749342005
NUSAT-1 (FRESCO)        
1 41557U 16033B   22159.18617645  .00007561  00000+0  22829-3 0  9996
2 41557  97.3874 256.8676 0011803  58.1694  29.1719 15.34485616335966
NUSAT-2 (BATATA)        
1 41558U 16033C   22159.16127291  .00006978  00000+0  19844-3 0  9992
2 41558  97.4067 262.4928 0010970  47.2481  46.3961 15.36410303336225
CARTOSAT-2C             
1 41599U 16040A   22159.18850696  .00001941  00000+0  95295-4 0  9999
2 41599  97.4865 218.8709 0013304 210.2010 234.6955 15.19225916330529
SATHYABAMASAT           
1 41600U 16040B   22158.42520972  .00012161  00000+0  38908-3 0  9992
2 41600  97.2205 211.0869 0012776 150.7511 209.4450 15.32473799331368
LAPAN-A3                
1 41603U 16040E   22159.15627778  .00000867  00000+0  42407-4 0  9998
2 41603  97.2056 196.5888 0012853 186.1786 258.5899 15.20647161330629
BIROS                   
1 41604U 16040F   22159.07211332  .00002468  00000+0  10374-3 0  9991
2 41604  97.2113 203.8299 0012476 158.6258 201.5503 15.24262528331031
SWAYAM                  
1 41607U 16040J   22158.37014952  .00009971  00000+0  32810-3 0  9990
2 41607  97.2158 209.3452 0012577 151.8027 208.3899 15.31627636331234
BEESAT-4                
1 41619U 16040W   22159.09578272  .00010119  00000+0  34097-3 0  9998
2 41619  97.2173 209.9763 0011098 143.6719 216.5278 15.30872257319293
3CAT-2                  
1 41732U 16051B   22159.23789128  .00006761  00000+0  21184-3 0  9997
2 41732  97.3801  82.3419 0010298 334.8024 181.8780 15.33361441323910
PRATHAM                 
1 41783U 16059A   22158.58096391  .00000237  00000+0  54403-4 0  9994
2 41783  97.9138 200.5313 0032896 202.8311 157.1431 14.63348207304187
ALSAT 1N                
1 41789U 16059G   22159.19611319  .00000340  00000+0  72217-4 0  9999
2 41789  97.9164 205.6694 0028139 183.3829 176.7189 14.64678585304512
LISHUI 1-01             
1 41845U 16066E   22159.05261655  .00040991  00000+0  42216-2 0  9999
2 41845  98.7376 289.3654 0224089  99.2065 263.4694 14.73316136295440
CARTOSAT-2D             
1 41948U 17008A   22158.74536456  .00002180  00000+0  10680-3 0  9998
2 41948  97.4639 218.5115 0006433  11.6624 348.4763 15.19203881294328
NAYIF-1 (EO-88)         
1 42017U 17008BX  22159.10886980  .00011144  00000+0  33721-3 0  9998
2 42017  97.2689 225.3599 0003363 270.6649  89.4209 15.34351431295649
ZHUHAI-1 02 (CAS-4B)    
1 42759U 17034B   22159.13954431  .00002330  00000+0  14676-3 0  9995
2 42759  43.0191  24.0368 0009530 239.0085 264.7485 15.11836550274941
ZHUHAI-1 01 (CAS-4A)    
1 42761U 17034D   22159.10836600  .00002114  00000+0  13402-3 0  9998
2 42761  43.0185  23.0022 0009997 239.6725 256.2841 15.11927747274948
UCLSAT                  
1 42765U 17036A   22158.57676238  .00007811  00000+0  27484-3 0  9997
2 42765  97.1979 201.5511 0009064  12.0920 348.0537 15.29560683275757
NIUSAT                  
1 42766U 17036B   22158.88915388  .00005825  00000+0  22730-3 0  9996
2 42766  97.2025 197.0525 0013425   9.6193 350.5301 15.26208863275343
CARTOSAT-2E             
1 42767U 17036C   22159.16973396  .00002064  00000+0  10122-3 0  9996
2 42767  97.4538 219.7923 0008141  58.2493 359.1648 15.19215554274953
LITUANICASAT-2          
1 42768U 17036D   22159.08199741  .00017932  00000+0  52677-3 0  9993
2 42768  97.2066 204.6423 0008992 348.7526  11.3515 15.35142847275812
AALTO-1                 
1 42775U 17036L   22158.52892460  .00004396  00000+0  17595-3 0  9997
2 42775  97.1982 196.6456 0012432  10.9442 349.2065 15.25505530275264
URSA MAIOR              
1 42776U 17036M   22159.10355419  .00005163  00000+0  20284-3 0  9993
2 42776  97.1995 197.9172 0011986   7.7959 352.3464 15.26051434275389
COMPASS 2               
1 42777U 17036N   22158.37140183  .00011504  00000+0  37162-3 0  9991
2 42777  97.2051 203.3671 0008580 358.5616   1.5600 15.32223583275606
MAX VALIER SAT          
1 42778U 17036P   22159.08326118  .00005818  00000+0  22286-3 0  9997
2 42778  97.2058 200.5068 0010635  10.9225 349.2243 15.26853731275479
PEGASUS                 
1 42784U 17036V   22159.08215647  .00007633  00000+0  27577-3 0  9993
2 42784  97.1994 201.3181 0009904  12.0550 348.0926 15.28693573275585
NUDTSAT                 
1 42787U 17036Y   22158.90229297  .00012194  00000+0  38050-3 0  9998
2 42787  97.2021 205.1648 0007885   1.1875 358.9382 15.33324896275632
SUCHAI                  
1 42788U 17036Z   22159.08884537  .00009309  00000+0  31849-3 0  9996
2 42788  97.2004 202.9299 0008913   7.8351 352.3028 15.30420840275757
SKCUBE                  
1 42789U 17036AA  22158.55767176  .00007827  00000+0  27430-3 0  9991
2 42789  97.2002 201.8938 0009125  10.7871 349.3564 15.29689362275564
VZLUSAT-1               
1 42790U 17036AB  22158.38685120  .00012360  00000+0  38737-3 0  9992
2 42790  97.2028 204.6345 0007461   4.9018 355.2297 15.33182674275700
ROBUSTA-1B              
1 42792U 17036AD  22158.38578428  .00008604  00000+0  29681-3 0  9990
2 42792  97.1999 202.2813 0008685  12.0494 348.0954 15.30177117275588
D-SAT                   
1 42794U 17036AF  22158.96180467  .00001745  00000+0  15080-3 0  9995
2 42794  97.4510 164.8748 0124805 116.6573 244.7492 14.92579768270101
NORSAT 2                
1 42828U 17042D   22158.84145266  .00001044  00000+0  10590-3 0  9998
2 42828  97.4314  15.7355 0015113  41.5436 318.6930 14.92792965266732
TECHNOSAT               
1 42829U 17042E   22159.09577805  .00000662  00000+0  70593-4 0  9990
2 42829  97.4221  13.7805 0015089  43.7480 316.4933 14.91842303266698
2017-042F               
1 42830U 17042F   22159.09262807  .00003520  00000+0  32716-3 0  9995
2 42830  97.4369  18.0972 0014432  34.8205 325.3958 14.94887134266884
FLYING LAPTOP           
1 42831U 17042G   22158.73644537  .00000334  00000+0  38271-4 0  9993
2 42831  97.4234  13.7596 0014889  44.8730 315.3701 14.91764535266645
CORVUS BC2              
1 42846U 17042X   22159.09919623  .00000824  00000+0  84504-4 0  9994
2 42846  97.4242  16.9381 0010346  36.3802 323.8120 14.92874485266889
CORVUS BC1              
1 42847U 17042Y   22158.84533013  .00000534  00000+0  56362-4 0  9991
2 42847  97.4244  17.0027 0010013  36.6101 323.5802 14.92978564266851
SIMPL                   
1 42983U 98067NF  22158.67059253  .00117410  16655-4  28934-3 0  9991
2 42983  51.6283 233.4749 0006344 331.4508  28.6152 15.95798794263375
CZ-4C R/B               
1 43012U 17072C   22158.37828900  .00000123  00000+0  36840-4 0  9992
2 43012  98.6979 194.0593 0126978 348.8607  10.9784 14.56344351242395
RADFXSAT (FOX-1B)       
1 43017U 17073E   22158.44210467  .00001425  00000+0  11244-3 0  9995
2 43017  97.6765  53.0447 0247810 220.3903 137.8680 14.81344273245631
EAGLESAT 1              
1 43018U 17073F   22158.67011897  .00002618  00000+0  19501-3 0  9996
2 43018  97.6791  54.9943 0240725 213.7008 144.8703 14.83534473245642
INS-1C                  
1 43116U 18004F   22159.09469644  .00008256  00000+0  28853-3 0  9998
2 43116  97.3758 235.1835 0008164  37.8325 322.3488 15.29781508244905
FLOCK 3P'-3             
1 43119U 18004J   22158.60337259  .00003234  00000+0  12447-3 0  9996
2 43119  97.3750 232.7738 0010125  47.8558 312.3540 15.27051611244714
FLOCK 3P'-2             
1 43120U 18004K   22159.13179115  .00003929  00000+0  15268-3 0  9997
2 43120  97.3756 232.9157 0009892  48.0091 312.1989 15.26605784244768
FLOCK 3P'-1             
1 43121U 18004L   22158.19197087  .00017030  00000+0  48557-3 0  9996
2 43121  97.3768 236.7013 0006448  33.7585 326.4069 15.36114924244868
FLOCK 3P'-4             
1 43122U 18004M   22158.98711143  .00003822  00000+0  14855-3 0  9997
2 43122  97.3762 232.9404 0009861  50.7227 309.4885 15.26614506244743
MICROMAS-2A             
1 43131U 18004W   22158.19014890  .00015383  00000+0  44272-3 0  9996
2 43131  97.3752 237.4468 0006078  39.6857 320.4830 15.35845617245006
PICSAT                  
1 43132U 18004X   22158.16867538  .00008212  00000+0  27485-3 0  9999
2 43132  97.3715 234.6041 0008090  46.5871 313.6042 15.31188878244835
CNUSAIL-1               
1 43133U 18004Y   22158.61120068  .00005821  00000+0  21252-3 0  9999
2 43133  97.3675 233.0799 0009058  48.0069 312.1941 15.28475987244798
2018-004Z               
1 43134U 18004Z   22158.68486260  .00007627  00000+0  26488-3 0  9998
2 43134  97.3703 234.4187 0008403  46.1479 314.0454 15.30012199244867
FOX-1D (AO-92)          
1 43137U 18004AC  22158.67332519  .00006294  00000+0  22443-3 0  9993
2 43137  97.3682 233.9186 0008410  47.8125 312.3828 15.29221325244859
STEP CUBE LAB           
1 43138U 18004AD  22158.49344088  .00013055  00000+0  39833-3 0  9992
2 43138  97.3748 237.1682 0006776  43.5490 316.6286 15.34035419245018
XIAOXIANG-2             
1 43155U 18008A   22159.18702598  .00003893  00000+0  21000-3 0  9992
2 43155  97.3519 217.8817 0016710 171.4171 273.5949 15.15216576241875
ZHOU ENLAI              
1 43156U 18008B   22159.20115215  .00004247  00000+0  23042-3 0  9992
2 43156  97.3565 217.7687 0014041 171.0215 274.7844 15.14993158241808
QUANTUTONG 1            
1 43158U 18008D   22159.10670747  .00003411  00000+0  19119-3 0  9991
2 43158  97.3520 215.6753 0012832 171.0329 246.4103 15.13973516241690
